[{"OBJECT_NAME":"TEVEL2-1","OBJECT_ID":"2025-052H","EPOCH":"2026-03-09T15:32:51.927072","MEAN_MOTION":15.30341923,"ECCENTRICITY":0.0004767,"INCLINATION":97.3991,"RA_OF_ASC_NODE":324.7682,"ARG_OF_PERICENTER":104.8919,"MEAN_ANOMALY":255.2849,"EPHEMERIS_TYPE":0,"CLASSIFICATION_TYPE":"U","NORAD_CAT_ID":63217,"ELEMENT_SET_NO":999,"REV_AT_EPOCH":5485,"BSTAR":0.000706,"MEAN_MOTION_DOT":0.00020683,"MEAN_MOTION_DDOT":0},{"OBJECT_NAME":"STARLINK-34796","OBJECT_ID":"2025-176H","EPOCH":"2026-03-09T22:26:58.007040","MEAN_MOTION":15.30197867,"ECCENTRICITY":0.00012549,"INCLINATION":53.16,"RA_OF_ASC_NODE":151.9,"ARG_OF_PERICENTER":87.3886,"MEAN_ANOMALY":272.7258,"EPHEMERIS_TYPE":0,"CLASSIFICATION_TYPE":"U","NORAD_CAT_ID":65205,"ELEMENT_SET_NO":999,"REV_AT_EPOCH":3315,"BSTAR":0.00096194988,"MEAN_MOTION_DOT":0.00028237,"MEAN_MOTION_DDOT":0}]
